[{"OBJECT_NAME":"STARLINK-6041","OBJECT_ID":"2023-064AG","EPOCH":"2026-03-09T12:25:52.700448","MEAN_MOTION":14.98304487,"ECCENTRICITY":0.00030426,"INCLINATION":69.9997,"RA_OF_ASC_NODE":124.8907,"ARG_OF_PERICENTER":271.043,"MEAN_ANOMALY":89.038,"EPHEMERIS_TYPE":0,"CLASSIFICATION_TYPE":"U","NORAD_CAT_ID":56478,"ELEMENT_SET_NO":999,"REV_AT_EPOCH":15571,"BSTAR":0.00041651172,"MEAN_MOTION_DOT":4.877e-5,"MEAN_MOTION_DDOT":0},{"OBJECT_NAME":"CZ-6A DEB","OBJECT_ID":"2022-151NQ","EPOCH":"2026-03-09T17:05:31.837920","MEAN_MOTION":14.96919824,"ECCENTRICITY":0.00482154,"INCLINATION":98.6429,"RA_OF_ASC_NODE":147.6002,"ARG_OF_PERICENTER":185.0484,"MEAN_ANOMALY":175.0256,"EPHEMERIS_TYPE":0,"CLASSIFICATION_TYPE":"U","NORAD_CAT_ID":54614,"ELEMENT_SET_NO":999,"REV_AT_EPOCH":10489,"BSTAR":0.0050921909,"MEAN_MOTION_DOT":0.00060273,"MEAN_MOTION_DDOT":0}]
